METAR KEWR 111851Z VRB03G19KT 2SM R04R/3000VP6000FT TSRA BR FEW015 BKN040CB BKN065 OVC200 22/22 A2987 RMK AO2 PK WND 29028/1817 WSHFT 1812 TSB05RAB22 SLP114 FRQ LTGICCCCG TS OHD AND NW-N-E MOV NE P0013 T02270215

